NORAD_CAT_ID,OBJECT_NAME,OBJECT_TYPE,EPOCH,MEAN_MOTION,ECCENTRICITY,INCLINATION,RA_OF_ASC_NODE,ARG_OF_PERICENTER,MEAN_ANOMALY,BSTAR,MEAN_MOTION_DOT,MEAN_MOTION_DDOT,TLE_LINE0,TLE_LINE1,TLE_LINE2,SEMIMAJOR_AXIS,PERIOD,APOGEE,PERIGEE,DECAYED
56806.0,STARLINK-6072,PAYLOAD,2023-06-14 04:00:00,15.76510305,0.000326,70.0027,14.2842,272.0768,264.3235,-0.0066651,-0.00950741,0.0,0 STARLINK-6072,1 56806U 23078AR  23165.16667824 -.00950741  00000-0 -66651-2 0  9996,2 56806  70.0027  14.2842 0003260 272.0768 264.3235 15.76510305  2489,6718.474,91.341,342.529,338.149,0.0
56806.0,STARLINK-6072,PAYLOAD,2023-06-14 12:00:00,15.75831824,0.0003467,70.0028,13.3383,263.4599,3.7499,-0.0064153,-0.00894211,0.0,0 STARLINK-6072,1 56806U 23078AR  23165.50001157 -.00894211  00000-0 -64153-2 0  9999,2 56806  70.0028  13.3383 0003467 263.4599   3.7499 15.75831824  2540,6720.402,91.38,344.597,339.937,0.0
56806.0,STARLINK-6072,PAYLOAD,2023-06-14 14:00:01,15.75694373,0.0003535,70.0031,13.1021,266.2514,113.5298,-0.0067858,-0.00935521,0.0,0 STARLINK-6072,1 56806U 23078AR  23165.58334491 -.00935521  00000-0 -67858-2 0  9992,2 56806  70.0031  13.1021 0003535 266.2514 113.5298 15.75694373  1301,6720.793,91.388,345.034,340.282,0.0
56806.0,STARLINK-6072,PAYLOAD,2023-06-14 22:00:00,15.74996887,0.0003378,70.0031,12.1573,273.0357,196.5902,-0.0064575,-0.00870156,0.0,0 STARLINK-6072,1 56806U 23078AR  23165.91667824 -.00870156  00000-0 -64575-2 0  9993,2 56806  70.0031  12.1573 0003378 273.0357 196.5902 15.74996887  1305,6722.777,91.429,346.913,342.371,0.0
56806.0,STARLINK-6072,PAYLOAD,2023-06-15 04:00:00,15.74552595,0.0003365,70.0027,11.4493,272.9651,173.5043,-0.0072568,-0.00949889,0.0,0 STARLINK-6072,1 56806U 23078AR  23166.16667824 -.00949889  00000-0 -72568-2 0  9992,2 56806  70.0027  11.4493 0003365 272.9651 173.5043 15.74552595  2647,6724.042,91.455,348.169,343.644,0.0
56806.0,STARLINK-6072,PAYLOAD,2023-06-15 12:00:02,15.73876296,0.0003351,70.0028,10.5066,265.819,269.1747,-0.0069617,-0.00891197,0.0,0 STARLINK-6072,1 56806U 23078AR  23166.50002315 -.00891197  00000-0 -69617-2 0  9997,2 56806  70.0028  10.5066 0003351 265.8190 269.1747 15.73876296  2692,6725.968,91.494,350.087,345.579,0.0
56806.0,STARLINK-6072,PAYLOAD,2023-06-15 14:00:01,15.73744423,0.0003523,70.003,10.271,265.472,21.4401,-0.0074499,-0.00942475,0.0,0 STARLINK-6072,1 56806U 23078AR  23166.58334491 -.00942475  00000-0 -74499-2 0  9998,2 56806  70.0030  10.2710 0003523 265.4720  21.4401 15.73744423  1303,6726.343,91.502,350.578,345.839,0.0
56806.0,STARLINK-6072,PAYLOAD,2023-06-15 20:00:01,15.73203401,0.0003581,70.0026,9.5645,271.3136,351.3076,-0.00709,-0.00882667,0.0,0 STARLINK-6072,1 56806U 23078AR  23166.83334491 -.00882667  00000-0 -70900-2 0  9995,2 56806  70.0026   9.5645 0003581 271.3136 351.3076 15.73203401  1306,6727.885,91.533,352.16,347.341,0.0
56806.0,STARLINK-6072,PAYLOAD,2023-06-16 04:00:00,15.72589999,0.0003694,70.002,8.623,272.1229,77.3764,-0.0078217,-0.00941738,0.0,0 STARLINK-6072,1 56806U 23078AR  23167.16667824 -.00941738  00000-0 -78217-2 0  9995,2 56806  70.0020   8.6230 0003694 272.1229  77.3764 15.72589999  2800,6729.635,91.569,353.986,349.014,0.0
56806.0,STARLINK-6072,PAYLOAD,2023-06-16 12:00:00,15.7192201,0.0003755,70.002,7.6825,267.3672,168.242,-0.0076485,-0.00899655,0.0,0 STARLINK-6072,1 56806U 23078AR  23167.50001157 -.00899655  00000-0 -76485-2 0  9999,2 56806  70.0020   7.6825 0003755 267.3672 168.2420 15.71922010  2853,6731.541,91.608,355.934,350.879,0.0
56806.0,STARLINK-6072,PAYLOAD,2023-06-16 14:00:01,15.71778184,0.0003658,70.0023,7.4476,265.2509,281.7591,-0.0079973,-0.00931293,0.0,0 STARLINK-6072,1 56806U 23078AR  23167.58334491 -.00931293  00000-0 -79973-2 0  9997,2 56806  70.0023   7.4476 0003658 265.2509 281.7591 15.71778184  1304,6731.952,91.616,356.279,351.354,0.0
56806.0,STARLINK-6072,PAYLOAD,2023-06-16 22:00:00,15.71073521,0.0003692,70.0023,6.5081,270.993,1.1691,-0.0074742,-0.00852922,0.0,0 STARLINK-6072,1 56806U 23078AR  23167.91667824 -.00852922  00000-0 -74742-2 0  9993,2 56806  70.0023   6.5081 0003692 270.9930   1.1691 15.71073521  1303,6733.965,91.657,358.316,353.344,0.0
56806.0,STARLINK-6072,PAYLOAD,2023-06-17 04:00:00,15.70608838,0.0003492,70.0019,5.8043,270.8318,334.6565,-0.007857,-0.00876622,0.0,0 STARLINK-6072,1 56806U 23078AR  23168.16667824 -.00876622  00000-0 -78570-2 0  9997,2 56806  70.0019   5.8043 0003492 270.8318 334.6565 15.70608838  2955,6735.293,91.684,359.51,354.806,0.0
56806.0,STARLINK-6072,PAYLOAD,2023-06-17 09:04:02,15.71695384,0.0007134,70.0022,5.2092,295.0936,64.952,0.0023265,0.00312642,0.0,0 STARLINK-6072,1 56806U 23078AR  23168.37780585  .00312642  00000-0  23265-2 0  9996,2 56806  70.0022   5.2092 0007134 295.0936  64.9520 15.71695384  2990,6732.188,91.621,358.856,349.251,0.0
56806.0,STARLINK-6072,PAYLOAD,2023-06-17 10:36:06,15.70457949,0.0002453,70.0022,5.0306,220.4718,139.6296,-0.0039461,-0.00459627,0.0,0 STARLINK-6072,1 56806U 23078AR  23168.44174113 -.00459627  00000-0 -39461-2 0  9990,2 56806  70.0022   5.0306 0002453 220.4718 139.6296 15.70457949  2740,6735.724,91.693,359.242,355.937,0.0
56806.0,STARLINK-6072,PAYLOAD,2023-06-17 18:14:51,15.70054473,0.0002905,70.0021,4.1351,273.0164,87.07,-0.0023577,-0.00276052,0.0,0 STARLINK-6072,1 56806U 23078AR  23168.76032308 -.00276052  00000-0 -23577-2 0  9994,2 56806  70.0021   4.1351 0002905 273.0164  87.0700 15.70054473  3056,6736.878,91.717,360.7,356.786,0.0
56806.0,STARLINK-6072,PAYLOAD,2023-06-17 21:18:22,15.69991557,0.0002849,70.002,3.7771,271.543,88.5439,-0.0013503,-0.00159951,0.0,0 STARLINK-6072,1 56806U 23078AR  23168.88776121 -.00159951  00000-0 -13503-2 0  9991,2 56806  70.0020   3.7771 0002849 271.5430  88.5439 15.69991557  2811,6737.058,91.72,360.843,357.004,0.0
56806.0,STARLINK-6072,PAYLOAD,2023-06-18 04:00:00,15.69972146,0.0003515,70.0006,2.9925,270.8499,225.012,-0.00034768,-0.00041895,0.0,0 STARLINK-6072,1 56806U 23078AR  23169.16667824 -.00041895  00000-0 -34768-3 0  9996,2 56806  70.0006   2.9925 0003515 270.8499 225.0120 15.69972146  3117,6737.114,91.721,361.347,356.611,0.0
56806.0,STARLINK-6072,PAYLOAD,2023-06-18 12:35:54,15.69970094,0.0003547,70.0017,1.9851,270.7393,89.3397,0.00047782,0.00057749,0.0,0 STARLINK-6072,1 56806U 23078AR  23169.52493868  .00057749  00000-0  47782-3 0  9994,2 56806  70.0017   1.9851 0003547 270.7393  89.3397 15.69970094  2917,6737.12,91.721,361.374,356.595,0.0
56806.0,STARLINK-6072,PAYLOAD,2023-06-18 20:00:01,15.69895957,0.0003567,70.0006,1.1178,275.3548,27.2568,0.0003609,0.00043358,0.0,0 STARLINK-6072,1 56806U 23078AR  23169.83334491  .00043358  00000-0  36090-3 0  9995,2 56806  70.0006   1.1178 0003567 275.3548  27.2568 15.69895957  3224,6737.332,91.726,361.6,356.793,0.0
56806.0,STARLINK-6072,PAYLOAD,2023-06-18 22:00:00,15.69895641,0.0003551,70.0007,0.8834,276.3977,137.0434,0.00050379,0.00060734,0.0,0 STARLINK-6072,1 56806U 23078AR  23169.91667824  .00060734  00000-0  50379-3 0  9996,2 56806  70.0007   0.8834 0003551 276.3977 137.0434 15.69895641  1309,6737.333,91.726,361.59,356.805,0.0
56806.0,STARLINK-6072,PAYLOAD,2023-06-19 08:28:40,15.69951036,0.0003521,70.0014,359.6562,274.6302,85.4492,0.00059171,0.00071627,0.0,0 STARLINK-6072,1 56806U 23078AR  23170.35325141  .00071627  00000-0  59171-3 0  9991,2 56806  70.0014 359.6562 0003521 274.6302  85.4492 15.69951036  3303,6737.174,91.723,361.411,356.667,0.0
56806.0,STARLINK-6072,PAYLOAD,2023-06-19 13:03:56,15.6993434,0.0003534,70.0009,359.1189,268.7677,91.3114,0.00012141,0.00014417,0.0,0 STARLINK-6072,1 56806U 23078AR  23170.54440195  .00014417  00000-0  12141-3 0  9999,2 56806  70.0009 359.1189 0003534 268.7677  91.3114 15.69934340  3070,6737.222,91.724,361.468,356.706,0.0
56806.0,STARLINK-6072,PAYLOAD,2023-06-19 20:00:01,15.69884289,0.0003675,70.0007,358.3063,276.3916,276.2274,0.00047412,0.00057094,0.0,0 STARLINK-6072,1 56806U 23078AR  23170.83334491  .00057094  00000-0  47412-3 0  9999,2 56806  70.0007 358.3063 0003675 276.3916 276.2274 15.69884289  3377,6737.365,91.727,361.706,356.754,0.0
56806.0,STARLINK-6072,PAYLOAD,2023-06-19 22:00:00,15.69884319,0.0003676,70.0007,358.0719,277.3746,26.0721,0.00062754,0.00075807,0.0,0 STARLINK-6072,1 56806U 23078AR  23170.91667824  .00075807  00000-0  62754-3 0  9995,2 56806  70.0007 358.0719 0003676 277.3746  26.0721 15.69884319  1308,6737.365,91.727,361.707,356.753,0.0
56806.0,STARLINK-6072,PAYLOAD,2023-06-20 12:00:00,15.69939815,0.0003641,70.0005,356.4318,268.4833,90.7884,-0.00014265,-0.00017342,0.0,0 STARLINK-6072,1 56806U 23078AR  23171.50001157 -.00017342  00000-0 -14265-3 0  9998,2 56806  70.0005 356.4318 0003641 268.4833  90.7884 15.69939815  3484,6737.206,91.723,361.524,356.618,0.0
56806.0,STARLINK-6072,PAYLOAD,2023-06-20 14:00:01,15.6996372,0.0003635,70.0006,356.1972,269.2885,200.8141,-0.00062883,-0.00075279,0.0,0 STARLINK-6072,1 56806U 23078AR  23171.58334491 -.00075279  00000-0 -62883-3 0  9998,2 56806  70.0006 356.1972 0003635 269.2885 200.8141 15.69963720  1308,6737.138,91.722,361.452,356.554,0.0
56806.0,STARLINK-6072,PAYLOAD,2023-06-20 22:00:00,15.69886302,0.0003529,70.0005,355.26,275.0698,278.3907,0.00052494,0.00063287,0.0,0 STARLINK-6072,1 56806U 23078AR  23171.91667824  .00063287  00000-0  52494-3 0  9995,2 56806  70.0005 355.2600 0003529 275.0698 278.3907 15.69886302  1304,6737.359,91.726,361.602,356.847,0.0
56806.0,STARLINK-6072,PAYLOAD,2023-06-21 12:28:15,15.69925966,0.0003655,70.0008,353.5652,271.6763,88.4014,0.00010914,0.00012932,0.0,0 STARLINK-6072,1 56806U 23078AR  23172.51962293  .00012932  00000-0  10914-3 0  9992,2 56806  70.0008 353.5652 0003655 271.6763  88.4014 15.69925966  3648,6737.246,91.724,361.573,356.648,0.0
56806.0,STARLINK-6072,PAYLOAD,2023-06-21 14:00:00,15.69932896,0.0003639,70.0008,353.3858,271.4972,88.5807,0.00018199,0.00021736,0.0,0 STARLINK-6072,1 56806U 23078AR  23172.58333932  .00021736  00000-0  18199-3 0  9996,2 56806  70.0008 353.3858 0003639 271.4972  88.5807 15.69932896  3399,6737.226,91.724,361.543,356.639,0.0
